From: horizons@ssd.jpl.nasa.gov (Horizons Ephemeris System)
Subject: [Horizons] SMALL BODY #C(V30@399)_T(LINEAR (C/1998 K5)) (1/1)
Date: February 9, 2021 at 10:53:29 PM PST

Automated mail xmit by MAIL_REQUEST, PID= 4809 Tue Feb  9 22:53:29 2021
++++++++++++++++++++++++++++++++ (part 1 of 1)  +++++++++++++++++++++++++++++++


*******************************************************************************
Ephemeris / MAIL_REQUEST Tue Feb  9 22:53:29 2021 Pasadena, USA  / Horizons
*******************************************************************************
Target body name: LINEAR (C/1998 K5)              {source: JPL#32}
Center body name: Earth (399)                     {source: DE431}
Center-site name: Heaven on Earth Observatory, Mayhill
*******************************************************************************
Start time      : A.D. 1998-Jan-11 00:00:00.0000 TDB
Stop  time      : A.D. 1999-Jan-11 00:00:00.0000 TDB
Step-size       : 10080 minutes
*******************************************************************************
Center geodetic : 254.471000,32.9035384,2.2360688 {E-lon(deg),Lat(deg),Alt(km)}
Center cylindric: 254.471000,5362.17112,3446.1964 {E-lon(deg),Dxy(km),Dz(km)}
Center pole/equ : High-precision EOP model        {East-longitude positive}
Center radii    : 6378.1 x 6378.1 x 6356.8 km     {Equator, meridian, pole}    
Small perturbers: Yes                             {source: SB431-N16}
Output units    : AU-D
Output type     : GEOMETRIC cartesian states
Output format   : 6 (LT, range, and range-rate)
EOP file        : eop.210209.p210503
EOP coverage    : DATA-BASED 1962-JAN-20 TO 2021-FEB-09. PREDICTS-> 2021-MAY-02
Reference frame : Ecliptic of J2000.0
*******************************************************************************
Initial IAU76/J2000 heliocentric ecliptic osculating elements (au, days, deg.):
 EPOCH=  2451021.5 ! 1998-Jul-27.0000000 (TDB)    RMSW= n.a.                  
  EC= .986693206645012    QR= .9635470024054572   TP= 2451011.9462020984      
  OM= 211.1176786402659   W= 99.46026669150154    IN= 9.927151548550016       
 Equivalent ICRF heliocentric equatorial cartesian coordinates (au, au/d):
  X= 7.888029894039116E-01  Y=-5.722683672388051E-01  Z=-7.944116066095874E-02
 VX= 1.659586806059272E-02 VY= 1.699971428700731E-02 VZ= 6.065231009160971E-03
Comet physical (GM= km^3/s^2; RAD= km):                                        
  GM= n.a.                RAD= n.a.                                           
  M1=  16.1     M2=  n.a.     k1=  16.    k2= n.a.     PHCOF= n.a.            
*******************************************************************************
           JDTDB,            Calendar Date (TDB),                     LT,                     RG,                     RR,
**************************************************************************************************************************
$$SOE
2450824.500000000, A.D. 1998-Jan-11 00:00:00.0000,  1.776161884319525E-02,  3.075328970304908E+00, -2.478013424903228E-02,
2450831.500000000, A.D. 1998-Jan-18 00:00:00.0000,  1.675086556926525E-02,  2.900322465966011E+00, -2.499322736885699E-02,
2450838.500000000, A.D. 1998-Jan-25 00:00:00.0000,  1.573444234355255E-02,  2.724334239908418E+00, -2.509034420283886E-02,
2450845.500000000, A.D. 1998-Feb-01 00:00:00.0000,  1.471740075601397E-02,  2.548238947819627E+00, -2.505342418913380E-02,
2450852.500000000, A.D. 1998-Feb-08 00:00:00.0000,  1.370533056107982E-02,  2.373004425677207E+00, -2.488200118383483E-02,
2450859.500000000, A.D. 1998-Feb-15 00:00:00.0000,  1.270317648294189E-02,  2.199486825935022E+00, -2.459950247985140E-02,
2450866.500000000, A.D. 1998-Feb-22 00:00:00.0000,  1.171534224909530E-02,  2.028448630372615E+00, -2.420684483208881E-02,
2450873.500000000, A.D. 1998-Mar-01 00:00:00.0000,  1.074654026066335E-02,  1.860705765951491E+00, -2.369015614076687E-02,
2450880.500000000, A.D. 1998-Mar-08 00:00:00.0000,  9.801872034003669E-03,  1.697141532847474E+00, -2.305282620563736E-02,
2450887.500000000, A.D. 1998-Mar-15 00:00:00.0000,  8.885614619880355E-03,  1.538496479444043E+00, -2.232252347216766E-02,
2450894.500000000, A.D. 1998-Mar-22 00:00:00.0000,  8.001358560244115E-03,  1.385392288808356E+00, -2.150381384967548E-02,
2450901.500000000, A.D. 1998-Mar-29 00:00:00.0000,  7.152846638496462E-03,  1.238477003797645E+00, -2.058663363913842E-02,
2450908.500000000, A.D. 1998-Apr-05 00:00:00.0000,  6.344064713203179E-03,  1.098440754429174E+00, -1.957795365389568E-02,
2450915.500000000, A.D. 1998-Apr-12 00:00:00.0000,  5.578019667873678E-03,  9.658041664436762E-01, -1.850901135954749E-02,
2450922.500000000, A.D. 1998-Apr-19 00:00:00.0000,  4.856925651779739E-03,  8.409506079034981E-01, -1.738622004716845E-02,
2450929.500000000, A.D. 1998-Apr-26 00:00:00.0000,  4.183098951547562E-03,  7.242811314057025E-01, -1.619983804255547E-02,
2450936.500000000, A.D. 1998-May-03 00:00:00.0000,  3.559136163383680E-03,  6.162453236466722E-01, -1.495358823226028E-02,
2450943.500000000, A.D. 1998-May-10 00:00:00.0000,  2.986963585616093E-03,  5.171767128428302E-01, -1.366490301900861E-02,
2450950.500000000, A.D. 1998-May-17 00:00:00.0000,  2.468648550500092E-03,  4.274332464781342E-01, -1.230453320225892E-02,
2450957.500000000, A.D. 1998-May-24 00:00:00.0000,  2.008553114943525E-03,  3.477701912935979E-01, -1.078328796123116E-02,
2450964.500000000, A.D. 1998-May-31 00:00:00.0000,  1.616025608854623E-03,  2.798061604372992E-01, -8.937373473582109E-03,
2450971.500000000, A.D. 1998-Jun-07 00:00:00.0000,  1.309129031962050E-03,  2.266686653622530E-01, -6.476862846642245E-03,
2450978.500000000, A.D. 1998-Jun-14 00:00:00.0000,  1.119128821241222E-03,  1.937711486689671E-01, -3.085823732932622E-03,
2450985.500000000, A.D. 1998-Jun-21 00:00:00.0000,  1.078700469187104E-03,  1.867711965029319E-01,  8.509871855315328E-04,
2450992.500000000, A.D. 1998-Jun-28 00:00:00.0000,  1.184728561744573E-03,  2.051293916419452E-01,  4.086918401288722E-03,
2450999.500000000, A.D. 1998-Jul-05 00:00:00.0000,  1.393545167804034E-03,  2.412848661943922E-01,  6.049402631708728E-03,
2451006.500000000, A.D. 1998-Jul-12 00:00:00.0000,  1.658934053757781E-03,  2.872355273686795E-01,  7.024085050868584E-03,
2451013.500000000, A.D. 1998-Jul-19 00:00:00.0000,  1.949014327313386E-03,  3.374613697795078E-01,  7.355390276206784E-03,
2451020.500000000, A.D. 1998-Jul-26 00:00:00.0000,  2.243009247706817E-03,  3.883650122791210E-01,  7.264456255950832E-03,
2451027.500000000, A.D. 1998-Aug-02 00:00:00.0000,  2.527179759985683E-03,  4.375676112444959E-01,  6.889698998457971E-03,
2451034.500000000, A.D. 1998-Aug-09 00:00:00.0000,  2.792207623557698E-03,  4.834557633311112E-01,  6.322899313661534E-03,
2451041.500000000, A.D. 1998-Aug-16 00:00:00.0000,  3.032131801961908E-03,  5.249973470705771E-01,  5.646242253318677E-03,
2451048.500000000, A.D. 1998-Aug-23 00:00:00.0000,  3.244787842537637E-03,  5.618175991020201E-01,  4.968275090049857E-03,
2451055.500000000, A.D. 1998-Aug-30 00:00:00.0000,  3.432375668591565E-03,  5.942974243382866E-01,  4.386730227358544E-03,
2451062.500000000, A.D. 1998-Sep-06 00:00:00.0000,  3.600366418830564E-03,  6.233841210810882E-01,  3.968133337410102E-03,
2451069.500000000, A.D. 1998-Sep-13 00:00:00.0000,  3.756577190310541E-03,  6.504311777287484E-01,  3.768189316367501E-03,
2451076.500000000, A.D. 1998-Sep-20 00:00:00.0000,  3.911558802224531E-03,  6.772654119948580E-01,  3.867723335238338E-03,
2451083.500000000, A.D. 1998-Sep-27 00:00:00.0000,  4.078750777996436E-03,  7.062138052259650E-01,  4.318590547278163E-03,
2451090.500000000, A.D. 1998-Oct-04 00:00:00.0000,  4.272564449484843E-03,  7.397716021830711E-01,  5.121548190228954E-03,
2451097.500000000, A.D. 1998-Oct-11 00:00:00.0000,  4.506656527430598E-03,  7.803033890309382E-01,  6.248490247081632E-03,
2451104.500000000, A.D. 1998-Oct-18 00:00:00.0000,  4.793625604793424E-03,  8.299905445197905E-01,  7.676458241975945E-03,
2451111.500000000, A.D. 1998-Oct-25 00:00:00.0000,  5.144201643096053E-03,  8.906909038960898E-01,  9.331839855064656E-03,
2451118.500000000, A.D. 1998-Nov-01 00:00:00.0000,  5.565234181368190E-03,  9.635904280791221E-01,  1.110708655629013E-02,
2451125.500000000, A.D. 1998-Nov-08 00:00:00.0000,  6.059349495942674E-03,  1.049143842719837E+00,  1.291200848927078E-02,
2451132.500000000, A.D. 1998-Nov-15 00:00:00.0000,  6.626585976294920E-03,  1.147357794749856E+00,  1.470278382084847E-02,
2451139.500000000, A.D. 1998-Nov-22 00:00:00.0000,  7.265022374580529E-03,  1.257899630416883E+00,  1.642062669821935E-02,
2451146.500000000, A.D. 1998-Nov-29 00:00:00.0000,  7.970363096559741E-03,  1.380025590634157E+00,  1.801145322832714E-02,
2451153.500000000, A.D. 1998-Dec-06 00:00:00.0000,  8.736737197176289E-03,  1.512719152776461E+00,  1.945531504534675E-02,
2451160.500000000, A.D. 1998-Dec-13 00:00:00.0000,  9.558350547510823E-03,  1.654977094520386E+00,  2.076463761679260E-02,
2451167.500000000, A.D. 1998-Dec-20 00:00:00.0000,  1.042940774491820E-02,  1.805795973003739E+00,  2.192328891385564E-02,
2451174.500000000, A.D. 1998-Dec-27 00:00:00.0000,  1.134330935246779E-02,  1.964033131143311E+00,  2.291201546869910E-02,
2451181.500000000, A.D. 1999-Jan-03 00:00:00.0000,  1.229310336820376E-02,  2.128484867114107E+00,  2.373656583417786E-02,
2451188.500000000, A.D. 1999-Jan-10 00:00:00.0000,  1.327263468304415E-02,  2.298085456815061E+00,  2.442001446425946E-02,
$$EOE
**************************************************************************************************************************
Coordinate system description:

 Ecliptic at the standard reference epoch

   Reference epoch: J2000.0
   X-Y plane: adopted Earth orbital plane at the reference epoch
              Note: obliquity of 84381.448 arcseconds (IAU76) wrt ICRF equator
   X-axis   : ICRF
   Z-axis   : perpendicular to the X-Y plane in the directional (+ or -) sense
              of Earth's north pole at the reference epoch.

 Symbol meaning [1 au= 149597870.700 km, 1 day= 86400.0 s]:

   JDTDB    Julian Day Number, Barycentric Dynamical Time
     LT     One-way down-leg Newtonian light-time (day)
     RG     Range; distance from coordinate center (au)
     RR     Range-rate; radial velocity wrt coord. center (au/day)

Geometric states/elements have no aberrations applied.


Computations by ...
    Solar System Dynamics Group, Horizons On-Line Ephemeris System
    4800 Oak Grove Drive, Jet Propulsion Laboratory
    Pasadena, CA  91109   USA
    Information  : https://ssd.jpl.nasa.gov/
    Documentation: https://ssd.jpl.nasa.gov/?horizons_doc
    Connect      : https://ssd.jpl.nasa.gov/?horizons (browser)
                   telnet ssd.jpl.nasa.gov 6775       (command-line)
                   e-mail command interface available
                   Script and CGI interfaces available
    Author       : Jon.D.Giorgini@jpl.nasa.gov
*******************************************************************************
